start=new Date('2023-05-29T00:00:00.000Z').valueOf();
sats=[{"MEAN_MOTION_DOT":"0.00000488","APOAPSIS":"548.608","TLE_LINE1":"1 48474U 21040AY  23148.06162843  .00000488  00000-0  51713-4 0  9993","LAUNCH_DATE":"2021-05-09","PERIAPSIS":"545.915","MEAN_MOTION_DDOT":"0.0000000000000","PERIOD":"95.593","CLASSIFICATION_TYPE":"U","RCS_SIZE":"LARGE","MEAN_ELEMENT_THEORY":"SGP4","REV_AT_EPOCH":"11453","GP_ID":"232682714","BSTAR":"0.00005171300000","EPOCH":"2023-05-28T01:28:44.696352","INCLINATION":"53.0546","SITE":"AFETR","FILE":"3919461","DECAY_DATE":null,"CENTER_NAME":"EARTH","COUNTRY_CODE":"US","SEMIMAJOR_AXIS":"6925.397","OBJECT_NAME":"STARLINK-2697","NORAD_CAT_ID":"48474","OBJECT_TYPE":"PAYLOAD","RA_OF_ASC_NODE":"75.4274","REF_FRAME":"TEME","ARG_OF_PERICENTER":"107.6712","ELEMENT_SET_NO":"999","MEAN_ANOMALY":"252.4489","TIME_SYSTEM":"UTC","OBJECT_ID":"2021-040AY","EPHEMERIS_TYPE":"0","TLE_LINE2":"2 48474  53.0546  75.4274 0001944 107.6712 252.4489 15.06384267114533","MEAN_MOTION":"15.06384267","ECCENTRICITY":"0.00019440"},{"MEAN_ELEMENT_THEORY":"SGP4","GP_ID":"232671610","REV_AT_EPOCH":"11327","BSTAR":"0.00025781000000","MEAN_MOTION_DDOT":"0.0000000000000","PERIOD":"95.593","CLASSIFICATION_TYPE":"U","RCS_SIZE":"LARGE","APOAPSIS":"548.038","TLE_LINE1":"1 48475U 21040AZ  23148.16483038  .00003560  00000-0  25781-3 0  9996","PERIAPSIS":"546.444","LAUNCH_DATE":"2021-05-09","MEAN_MOTION_DOT":"0.00003560","TIME_SYSTEM":"UTC","OBJECT_ID":"2021-040AZ","EPHEMERIS_TYPE":"0","MEAN_MOTION":"15.06391086","TLE_LINE2":"2 48475  53.0548  74.9758 0001151  90.4267 269.6854 15.06391086113274","ECCENTRICITY":"0.00011510","ARG_OF_PERICENTER":"90.4267","ELEMENT_SET_NO":"999","MEAN_ANOMALY":"269.6854","CENTER_NAME":"EARTH","COUNTRY_CODE":"US","OBJECT_NAME":"STARLINK-2619","SEMIMAJOR_AXIS":"6925.376","NORAD_CAT_ID":"48475","RA_OF_ASC_NODE":"74.9758","OBJECT_TYPE":"PAYLOAD","REF_FRAME":"TEME","EPOCH":"2023-05-28T03:57:21.344832","INCLINATION":"53.0548","SITE":"AFETR","FILE":"3919252","DECAY_DATE":null},{"MEAN_MOTION_DOT":"0.00001579","TLE_LINE1":"1 48476U 21040BA  23148.12060028  .00001579  00000-0  12491-3 0  9995","APOAPSIS":"548.257","LAUNCH_DATE":"2021-05-09","PERIAPSIS":"546.228","MEAN_MOTION_DDOT":"0.0000000000000","PERIOD":"95.593","CLASSIFICATION_TYPE":"U","RCS_SIZE":"LARGE","GP_ID":"232672861","REV_AT_EPOCH":"11326","MEAN_ELEMENT_THEORY":"SGP4","BSTAR":"0.00012491000000","EPOCH":"2023-05-28T02:53:39.864192","INCLINATION":"53.0555","DECAY_DATE":null,"FILE":"3919252","SITE":"AFETR","CENTER_NAME":"EARTH","COUNTRY_CODE":"US","SEMIMAJOR_AXIS":"6925.377","OBJECT_NAME":"STARLINK-2723","REF_FRAME":"TEME","NORAD_CAT_ID":"48476","RA_OF_ASC_NODE":"75.1693","OBJECT_TYPE":"PAYLOAD","ARG_OF_PERICENTER":"105.3297","ELEMENT_SET_NO":"999","MEAN_ANOMALY":"254.7854","TIME_SYSTEM":"UTC","ECCENTRICITY":"0.00014650","EPHEMERIS_TYPE":"0","OBJECT_ID":"2021-040BA","TLE_LINE2":"2 48476  53.0555  75.1693 0001465 105.3297 254.7854 15.06390604113260","MEAN_MOTION":"15.06390604"},{"MEAN_ANOMALY":"274.0587","ELEMENT_SET_NO":"999","ARG_OF_PERICENTER":"86.0535","TLE_LINE2":"2 48478  53.0553  74.6465 0001166  86.0535 274.0587 15.06393712113282","MEAN_MOTION":"15.06393712","EPHEMERIS_TYPE":"0","OBJECT_ID":"2021-040BC","ECCENTRICITY":"0.00011660","TIME_SYSTEM":"UTC","SITE":"AFETR","DECAY_DATE":null,"FILE":"3919252","EPOCH":"2023-05-28T05:43:30.424512","INCLINATION":"53.0553","RA_OF_ASC_NODE":"74.6465","OBJECT_TYPE":"PAYLOAD","NORAD_CAT_ID":"48478","REF_FRAME":"TEME","SEMIMAJOR_AXIS":"6925.368","OBJECT_NAME":"STARLINK-2728","CENTER_NAME":"EARTH","COUNTRY_CODE":"US","RCS_SIZE":"LARGE","CLASSIFICATION_TYPE":"U","PERIOD":"95.593","MEAN_MOTION_DDOT":"0.0000000000000","BSTAR":"0.00007329200000","MEAN_ELEMENT_THEORY":"SGP4","GP_ID":"232672608","REV_AT_EPOCH":"11328","MEAN_MOTION_DOT":"0.00000810","LAUNCH_DATE":"2021-05-09","PERIAPSIS":"546.425","APOAPSIS":"548.040","TLE_LINE1":"1 48478U 21040BC  23148.23854658  .00000810  00000-0  73292-4 0  9993"},{"MEAN_MOTION_DOT":"0.00002801","LAUNCH_DATE":"2021-05-09","PERIAPSIS":"546.065","APOAPSIS":"548.431","TLE_LINE1":"1 48479U 21040BD  23148.16852285  .00002801  00000-0  20693-3 0  9998","CLASSIFICATION_TYPE":"U","RCS_SIZE":"LARGE","MEAN_MOTION_DDOT":"0.0000000000000","PERIOD":"95.593","BSTAR":"0.00020693000000","MEAN_ELEMENT_THEORY":"SGP4","GP_ID":"232671360","REV_AT_EPOCH":"11327","SITE":"AFETR","FILE":"3919252","DECAY_DATE":null,"INCLINATION":"53.0560","EPOCH":"2023-05-28T04:02:40.374240","NORAD_CAT_ID":"48479","RA_OF_ASC_NODE":"74.9610","OBJECT_TYPE":"PAYLOAD","REF_FRAME":"TEME","COUNTRY_CODE":"US","CENTER_NAME":"EARTH","OBJECT_NAME":"STARLINK-2755","SEMIMAJOR_AXIS":"6925.383","ELEMENT_SET_NO":"999","MEAN_ANOMALY":"257.5674","ARG_OF_PERICENTER":"102.5506","EPHEMERIS_TYPE":"0","OBJECT_ID":"2021-040BD","TLE_LINE2":"2 48479  53.0560  74.9610 0001708 102.5506 257.5674 15.06388699113270","MEAN_MOTION":"15.06388699","ECCENTRICITY":"0.00017080","TIME_SYSTEM":"UTC"},{"REV_AT_EPOCH":"11323","GP_ID":"232705397","MEAN_ELEMENT_THEORY":"SGP4","BSTAR":"0.00111700000000","PERIOD":"95.590","MEAN_MOTION_DDOT":"0.0000000000000","RCS_SIZE":"LARGE","CLASSIFICATION_TYPE":"U","TLE_LINE1":"1 48480U 21040BE  23148.84484662  .00016409  00000-0  11170-2 0  9993","APOAPSIS":"548.087","LAUNCH_DATE":"2021-05-09","PERIAPSIS":"546.158","MEAN_MOTION_DOT":"0.00016409","TIME_SYSTEM":"UTC","ECCENTRICITY":"0.00013930","TLE_LINE2":"2 48480  53.0545  81.9105 0001393  88.7760 271.3389 15.06429807113239","MEAN_MOTION":"15.06429807","OBJECT_ID":"2021-040BE","EPHEMERIS_TYPE":"0","ARG_OF_PERICENTER":"88.7760","MEAN_ANOMALY":"271.3389","ELEMENT_SET_NO":"999","OBJECT_NAME":"STARLINK-2690","SEMIMAJOR_AXIS":"6925.257","COUNTRY_CODE":"US","CENTER_NAME":"EARTH","REF_FRAME":"TEME","RA_OF_ASC_NODE":"81.9105","OBJECT_TYPE":"PAYLOAD","NORAD_CAT_ID":"48480","EPOCH":"2023-05-28T20:16:34.747968","INCLINATION":"53.0545","FILE":"3919546","DECAY_DATE":null,"SITE":"AFETR"},{"BSTAR":"0.00017324000000","MEAN_ELEMENT_THEORY":"SGP4","REV_AT_EPOCH":"11313","GP_ID":"232672362","CLASSIFICATION_TYPE":"U","RCS_SIZE":"LARGE","MEAN_MOTION_DDOT":"0.0000000000000","PERIOD":"95.593","LAUNCH_DATE":"2021-05-09","PERIAPSIS":"546.399","APOAPSIS":"548.078","TLE_LINE1":"1 48481U 21040BF  23148.22292415  .00002299  00000-0  17324-3 0  9999","MEAN_MOTION_DOT":"0.00002299","EPHEMERIS_TYPE":"0","OBJECT_ID":"2021-040BF","TLE_LINE2":"2 48481  53.0536  84.9907 0001212  93.7441 266.3687 15.06391762113137","MEAN_MOTION":"15.06391762","ECCENTRICITY":"0.00012120","TIME_SYSTEM":"UTC","ELEMENT_SET_NO":"999","MEAN_ANOMALY":"266.3687","ARG_OF_PERICENTER":"93.7441","NORAD_CAT_ID":"48481","RA_OF_ASC_NODE":"84.9907","OBJECT_TYPE":"PAYLOAD","REF_FRAME":"TEME","COUNTRY_CODE":"US","CENTER_NAME":"EARTH","OBJECT_NAME":"STARLINK-2706","SEMIMAJOR_AXIS":"6925.374","SITE":"AFETR","DECAY_DATE":null,"FILE":"3919252","EPOCH":"2023-05-28T05:21:00.646560","INCLINATION":"53.0536"},{"MEAN_MOTION_DOT":"-0.00001689","APOAPSIS":"548.106","TLE_LINE1":"1 48482U 21040BG  23148.12335988 -.00001689  00000-0 -94537-4 0  9998","LAUNCH_DATE":"2021-05-09","PERIAPSIS":"546.361","PERIOD":"95.593","MEAN_MOTION_DDOT":"0.0000000000000","RCS_SIZE":"LARGE","CLASSIFICATION_TYPE":"U","MEAN_ELEMENT_THEORY":"SGP4","GP_ID":"232673108","REV_AT_EPOCH":"11312","BSTAR":"-0.00009453700000","INCLINATION":"53.0545","EPOCH":"2023-05-28T02:57:38.293632","SITE":"AFETR","FILE":"3919252","DECAY_DATE":null,"SEMIMAJOR_AXIS":"6925.368","OBJECT_NAME":"STARLINK-2525","COUNTRY_CODE":"US","CENTER_NAME":"EARTH","RA_OF_ASC_NODE":"85.1627","OBJECT_TYPE":"PAYLOAD","NORAD_CAT_ID":"48482","REF_FRAME":"TEME","ARG_OF_PERICENTER":"105.3373","MEAN_ANOMALY":"254.7755","ELEMENT_SET_NO":"999","TIME_SYSTEM":"UTC","TLE_LINE2":"2 48482  53.0545  85.1627 0001260 105.3373 254.7755 15.06393536113124","MEAN_MOTION":"15.06393536","OBJECT_ID":"2021-040BG","EPHEMERIS_TYPE":"0","ECCENTRICITY":"0.00012600"},{"TLE_LINE1":"1 48483U 21040BH  23148.11966979 -.00000609  00000-0 -22019-4 0  9995","APOAPSIS":"548.035","LAUNCH_DATE":"2021-05-09","PERIAPSIS":"546.417","MEAN_MOTION_DOT":"-0.00000609","GP_ID":"232671860","REV_AT_EPOCH":"11312","MEAN_ELEMENT_THEORY":"SGP4","BSTAR":"-0.00002201900000","MEAN_MOTION_DDOT":"0.0000000000000","PERIOD":"95.592","CLASSIFICATION_TYPE":"U","RCS_SIZE":"LARGE","CENTER_NAME":"EARTH","COUNTRY_CODE":"US","SEMIMAJOR_AXIS":"6925.361","OBJECT_NAME":"STARLINK-2531","REF_FRAME":"TEME","NORAD_CAT_ID":"48483","RA_OF_ASC_NODE":"85.1783","OBJECT_TYPE":"PAYLOAD","EPOCH":"2023-05-28T02:52:19.469856","INCLINATION":"53.0545","DECAY_DATE":null,"FILE":"3919252","SITE":"AFETR","TIME_SYSTEM":"UTC","ECCENTRICITY":"0.00011680","OBJECT_ID":"2021-040BH","EPHEMERIS_TYPE":"0","MEAN_MOTION":"15.06395896","TLE_LINE2":"2 48483  53.0545  85.1783 0001168 104.7276 255.3843 15.06395896113126","ARG_OF_PERICENTER":"104.7276","ELEMENT_SET_NO":"999","MEAN_ANOMALY":"255.3843"},{"MEAN_MOTION_DOT":"0.00000383","PERIAPSIS":"546.341","LAUNCH_DATE":"2021-05-09","TLE_LINE1":"1 48484U 21040BJ  23148.13077364  .00000383  00000-0  44601-4 0  9997","APOAPSIS":"548.114","CLASSIFICATION_TYPE":"U","RCS_SIZE":"LARGE","MEAN_MOTION_DDOT":"0.0000000000000","PERIOD":"95.592","BSTAR":"0.00004460100000","REV_AT_EPOCH":"11312","GP_ID":"232671611","MEAN_ELEMENT_THEORY":"SGP4","FILE":"3919252","DECAY_DATE":null,"SITE":"AFETR","INCLINATION":"53.0557","EPOCH":"2023-05-28T03:08:18.842496","REF_FRAME":"TEME","NORAD_CAT_ID":"48484","OBJECT_TYPE":"PAYLOAD","RA_OF_ASC_NODE":"85.4826","COUNTRY_CODE":"US","CENTER_NAME":"EARTH","OBJECT_NAME":"STARLINK-2696","SEMIMAJOR_AXIS":"6925.363","ELEMENT_SET_NO":"999","MEAN_ANOMALY":"261.3282","ARG_OF_PERICENTER":"98.7852","ECCENTRICITY":"0.00012800","OBJECT_ID":"2021-040BJ","EPHEMERIS_TYPE":"0","MEAN_MOTION":"15.06395340","TLE_LINE2":"2 48484  53.0557  85.4826 0001280  98.7852 261.3282 15.06395340113126","TIME_SYSTEM":"UTC"}];
